NORAD_CAT_ID,OBJECT_NAME,OBJECT_TYPE,EPOCH,MEAN_MOTION,ECCENTRICITY,INCLINATION,RA_OF_ASC_NODE,ARG_OF_PERICENTER,MEAN_ANOMALY,BSTAR,MEAN_MOTION_DOT,MEAN_MOTION_DDOT,TLE_LINE0,TLE_LINE1,TLE_LINE2,SEMIMAJOR_AXIS,PERIOD,APOGEE,PERIGEE,DECAYED
52845.0,STARLINK-4168,PAYLOAD,2022-07-26 14:00:01,15.49938589,0.0001694,53.2154,212.5919,44.4297,49.2479,-0.0011832,-0.0006716,0.0,0 STARLINK-4168,1 52845U 22062R   22207.58334491 -.00067160  00000-0 -11832-2 0  9995,2 52845  53.2154 212.5919 0001694  44.4297  49.2479 15.49938589  1305,6795.043000000002,92.907,418.059,415.756,0.0
52845.0,STARLINK-4168,PAYLOAD,2022-07-26 22:00:00,15.49872946,0.0001603,53.2162,210.997,53.9254,100.6982,0.00084515,0.00047788,0.0,0 STARLINK-4168,1 52845U 22062R   22207.91667824  .00047788  00000-0  84515-3 0  9992,2 52845  53.2162 210.9970 0001603  53.9254 100.6982 15.49872946  1306,6795.234,92.911,418.189,416.01,0.0
52845.0,STARLINK-4168,PAYLOAD,2022-07-27 06:00:02,15.49936533,0.0001712,53.217,209.4057,49.2088,166.3946,-0.0017997,-0.0010147,0.0,0 STARLINK-4168,1 52845U 22062R   22208.25002315 -.00101470  00000-0 -17997-2 0  9998,2 52845  53.2170 209.4057 0001712  49.2088 166.3946 15.49936533  6743,6795.049,92.907,418.077,415.75,0.0
52845.0,STARLINK-4168,PAYLOAD,2022-07-27 14:00:01,15.49904307,0.000175,53.2171,207.8197,47.3924,229.0793,-0.0039148,-0.00216762,0.0,0 STARLINK-4168,1 52845U 22062R   22208.58334491 -.00216762  00000-0 -39148-2 0  9990,2 52845  53.2171 207.8197 0001750  47.3924 229.0793 15.49904307  1309,6795.143,92.909,418.197,415.819,0.0
52845.0,STARLINK-4168,PAYLOAD,2022-07-27 22:00:00,15.49914147,0.0001626,53.217,206.2178,52.3391,285.0701,-0.00072204,-0.00041259,0.0,0 STARLINK-4168,1 52845U 22062R   22208.91667824 -.00041259  00000-0 -72204-3 0  9994,2 52845  53.2170 206.2178 0001626  52.3391 285.0701 15.49914147  1300,6795.114000000001,92.908,418.084,415.874,0.0
52845.0,STARLINK-4168,PAYLOAD,2022-07-28 00:00:00,15.49925983,0.0001657,53.2172,205.8197,53.1632,29.4758,-0.0014062,-0.00079572,0.0,0 STARLINK-4168,1 52845U 22062R   22209.00001157 -.00079572  00000-0 -14062-2 0  9992,2 52845  53.2172 205.8197 0001657  53.1632  29.4758 15.49925983  6856,6795.079000000002,92.908,418.07,415.818,0.0
52845.0,STARLINK-4168,PAYLOAD,2022-07-28 14:00:01,15.49874023,0.0001746,53.2166,203.0333,43.8959,55.3262,-0.0003348,-0.00019399,0.0,0 STARLINK-4168,1 52845U 22062R   22209.58334491 -.00019399  00000-0 -33480-3 0  9992,2 52845  53.2166 203.0333 0001746  43.8959  55.3262 15.49874023  1309,6795.231,92.911,418.283,415.91,0.0
52845.0,STARLINK-4168,PAYLOAD,2022-07-28 22:00:00,15.4984935,0.0001585999999999,53.2167,201.439,51.9146,108.1979,0.00065947,0.00037108,0.0,0 STARLINK-4168,1 52845U 22062R   22209.91667824  .00037108  00000-0  65947-3 0  9997,2 52845  53.2167 201.4390 0001586  51.9146 108.1979 15.49849350  1302,6795.303000000001,92.912,418.246,416.091,0.0
52845.0,STARLINK-4168,PAYLOAD,2022-07-29 00:00:00,15.49868002,0.0001597,53.2169,201.041,52.71100000000001,212.6158,0.00021643,0.00011843,0.0,0 STARLINK-4168,1 52845U 22062R   22210.00001157  .00011843  00000-0  21643-3 0  9993,2 52845  53.2169 201.0410 0001597  52.7110 212.6158 15.49868002  7014,6795.249,92.911,418.199,416.029,0.0
52845.0,STARLINK-4168,PAYLOAD,2022-07-29 14:00:01,15.49890578,0.0001702,53.2164,198.2568,46.87300000000001,235.0198,-0.00048017,-0.00027614,0.0,0 STARLINK-4168,1 52845U 22062R   22210.58334491 -.00027614  00000-0 -48017-3 0  9995,2 52845  53.2164 198.2568 0001702  46.8730 235.0198 15.49890578  1302,6795.183000000001,92.91,418.204,415.891,0.0
52845.0,STARLINK-4168,PAYLOAD,2022-07-29 22:00:00,15.50020974,0.0001435,53.2171,196.6675,51.5693,291.207,-0.0096791,-0.00517485,0.0,0 STARLINK-4168,1 52845U 22062R   22210.91667824 -.00517485  00000-0 -96791-2 0  9992,2 52845  53.2171 196.6675 0001435  51.5693 291.2070 15.50020974  7154,6794.802,92.902,417.642,415.692,0.0
52845.0,STARLINK-4168,PAYLOAD,2022-07-30 06:00:00,15.49799306,0.0001673,53.2174,195.0833,35.6472,7.9559,-0.020429,-0.01050547,0.0,0 STARLINK-4168,1 52845U 22062R   22211.25001157 -.01050547  00000-0 -20429-1 0  9997,2 52845  53.2174 195.0833 0001673  35.6472   7.9559 15.49799306  7208,6795.45,92.915,418.452,416.17800000000005,0.0
52845.0,STARLINK-4168,PAYLOAD,2022-07-30 14:00:01,15.49042562,0.0001514,53.2172,193.4957,43.9435,60.0111,-0.022392,-0.01114181,0.0,0 STARLINK-4168,1 52845U 22062R   22211.58334491 -.01114181  00000-0 -22392-1 0  9999,2 52845  53.2172 193.4957 0001514  43.9435  60.0111 15.49042562  1304,6797.663000000001,92.961,420.557,418.49800000000016,0.0
52845.0,STARLINK-4168,PAYLOAD,2022-07-30 22:00:00,15.48239682,0.000166,53.2175,191.908,44.1603,119.2025,-0.0230259999999999,-0.01113781,0.0,0 STARLINK-4168,1 52845U 22062R   22211.91667824 -.01113781  00000-0 -23026-1 0  9995,2 52845  53.2175 191.9080 0001660  44.1603 119.2025 15.48239682  7306,6800.013000000001,93.009,423.006,420.749,0.0
52845.0,STARLINK-4168,PAYLOAD,2022-07-31 14:00:01,15.46635505,0.0001404,53.2173,188.7422,49.9516,229.3315,-0.024427,-0.01133011,0.0,0 STARLINK-4168,1 52845U 22062R   22212.58334491 -.01133011  00000-0 -24427-1 0  9994,2 52845  53.2173 188.7422 0001404  49.9516 229.3315 15.46635505  1301,6804.714,93.105,427.534,425.62300000000016,0.0
52845.0,STARLINK-4168,PAYLOAD,2022-07-31 22:00:00,15.45829191,0.0001433,53.2176,187.1606,43.8807,291.9173,-0.02496,-0.01126415,0.0,0 STARLINK-4168,1 52845U 22062R   22212.91667824 -.01126415  00000-0 -24960-1 0  9992,2 52845  53.2176 187.1606 0001433  43.8807 291.9173 15.45829191  7464,6807.08,93.154,429.92,427.969,0.0
52845.0,STARLINK-4168,PAYLOAD,2022-08-01 14:00:01,15.44224889,0.0001610999999999,53.2174,184.0061,39.1953,46.7343,-0.0264399999999999,-0.0112899,0.0,0 STARLINK-4168,1 52845U 22062R   22213.58334491 -.01128990  00000-0 -26440-1 0  9992,2 52845  53.2174 184.0061 0001611  39.1953  46.7343 15.44224889  7569,6811.794,93.251,434.756,432.561,0.0
52845.0,STARLINK-4168,PAYLOAD,2022-08-01 22:00:00,15.4342103,0.0001771999999999,53.2178,182.4304,39.55,99.999,-0.0271079999999999,-0.01126494,0.0,0 STARLINK-4168,1 52845U 22062R   22213.91667824 -.01126494  00000-0 -27108-1 0  9997,2 52845  53.2178 182.4304 0001772  39.5500  99.9990 15.43421030  1305,6814.159000000002,93.299,437.231,434.816,0.0
52845.0,STARLINK-4168,PAYLOAD,2022-08-02 06:00:02,15.42618343,0.0002056,53.2176,180.8595,33.8712,158.3951,-0.0278649999999999,-0.0112691,0.0,0 STARLINK-4168,1 52845U 22062R   22214.25002315 -.01126910  00000-0 -27865-1 0  9996,2 52845  53.2176 180.8595 0002056  33.8712 158.3951 15.42618343  7672,6816.522,93.348,439.789,436.986,0.0
52845.0,STARLINK-4168,PAYLOAD,2022-08-02 14:00:01,15.4181783,0.000155,53.2174,179.2873,48.1981,195.6933,-0.028756,-0.01131415,0.0,0 STARLINK-4168,1 52845U 22062R   22214.58334491 -.01131415  00000-0 -28756-1 0  9991,2 52845  53.2174 179.2873 0001550  48.1981 195.6933 15.41817830  1305,6818.880999999999,93.396,441.80300000000005,439.689,0.0
52845.0,STARLINK-4168,PAYLOAD,2022-08-03 06:00:00,15.40211293,0.0001486,53.2176,176.1523,43.2312,301.1436,-0.030285,-0.01129412,0.0,0 STARLINK-4168,1 52845U 22062R   22215.25001157 -.01129412  00000-0 -30285-1 0  9990,2 52845  53.2176 176.1523 0001486  43.2312 301.1436 15.40211293  7822,6823.621999999999,93.494,446.501,444.473,0.0
52845.0,STARLINK-4168,PAYLOAD,2022-08-03 14:00:01,15.39407681,0.0001416999999999,53.2175,174.5858,43.9056,349.2655,-0.031079,-0.01128593,0.0,0 STARLINK-4168,1 52845U 22062R   22215.58334491 -.01128593  00000-0 -31079-1 0  9997,2 52845  53.2175 174.5858 0001417  43.9056 349.2655 15.39407681  1309,6825.996999999999,93.542,448.829,446.894,0.0
52845.0,STARLINK-4168,PAYLOAD,2022-08-03 22:00:01,15.38602565,0.0001675999999999,53.2175,173.0216,38.7666,42.2996,-0.031781,-0.01124298,0.0,0 STARLINK-4168,1 52845U 22062R   22215.91668981 -.01124298  00000-0 -31781-1 0  9996,2 52845  53.2175 173.0216 0001676  38.7666  42.2996 15.38602565  1302,6828.378000000002,93.591,451.387,449.098,0.0
52845.0,STARLINK-4168,PAYLOAD,2022-08-04 06:00:00,15.3780045,0.0001992,53.2175,171.4622,33.838,94.0278,-0.032663,-0.01125463,0.0,0 STARLINK-4168,1 52845U 22062R   22216.25001157 -.01125463  00000-0 -32663-1 0  9995,2 52845  53.2175 171.4622 0001992  33.8380  94.0278 15.37800450  7974,6830.752,93.64,453.978,451.256,0.0
52845.0,STARLINK-4168,PAYLOAD,2022-08-04 14:00:01,15.36998684,0.0001610999999999,53.2176,169.9013,48.5996,125.1672,-0.033588,-0.01127176,0.0,0 STARLINK-4168,1 52845U 22062R   22216.58334491 -.01127176  00000-0 -33588-1 0  9991,2 52845  53.2176 169.9013 0001611  48.5996 125.1672 15.36998684  1306,6833.127,93.689,456.093,453.891,0.0
52845.0,STARLINK-4168,PAYLOAD,2022-08-04 22:00:00,15.36194256,0.0001616,53.2176,168.3434,50.4663,168.2364,-0.034367,-0.01123889,0.0,0 STARLINK-4168,1 52845U 22062R   22216.91667824 -.01123889  00000-0 -34367-1 0  9990,2 52845  53.2176 168.3434 0001616  50.4663 168.2364 15.36194256  1303,6835.513000000001,93.738,458.482,456.273,0.0
52845.0,STARLINK-4168,PAYLOAD,2022-08-05 06:00:02,15.35390907,0.0001508,53.2175,166.7894,54.0265,208.7101,-0.035244,-0.01123093,0.0,0 STARLINK-4168,1 52845U 22062R   22217.25002315 -.01123093  00000-0 -35244-1 0  9998,2 52845  53.2175 166.7894 0001508  54.0265 208.7101 15.35390907  8139,6837.897,93.787,460.793,458.73,0.0
52845.0,STARLINK-4168,PAYLOAD,2022-08-05 14:00:01,15.34590867,0.0001465999999999,53.2175,165.2339,45.6009,260.142,-0.0363589999999999,-0.01128687,0.0,0 STARLINK-4168,1 52845U 22062R   22217.58335648 -.01128687  00000-0 -36359-1 0  9994,2 52845  53.2175 165.2339 0001466  45.6009 260.1420 15.34590867  1306,6840.273,93.836,463.141,461.135,0.0
52845.0,STARLINK-4168,PAYLOAD,2022-08-05 22:00:00,15.33786408,0.0001506,53.2177,163.6818,42.8291,304.8913,-0.037174,-0.01125039,0.0,0 STARLINK-4168,1 52845U 22062R   22217.91667824 -.01125039  00000-0 -37174-1 0  9999,2 52845  53.2177 163.6818 0001506  42.8291 304.8913 15.33786408  1309,6842.665,93.885,465.56,463.499,0.0
